METEOR-M2 4             
1 59051U 24039A   24288.52011762  .00000196  00000+0  10773-3 0  9992
2 59051  98.6139 247.5593 0007814 131.9216 228.2630 14.22283180 32454
